NORAD_CAT_ID,OBJECT_NAME,OBJECT_TYPE,EPOCH,MEAN_MOTION,ECCENTRICITY,INCLINATION,RA_OF_ASC_NODE,ARG_OF_PERICENTER,MEAN_ANOMALY,BSTAR,MEAN_MOTION_DOT,MEAN_MOTION_DDOT,TLE_LINE0,TLE_LINE1,TLE_LINE2,SEMIMAJOR_AXIS,PERIOD,APOGEE,PERIGEE,DECAYED
51798.0,STARLINK-3634,PAYLOAD,2022-10-16 03:14:02,15.08834923,0.0001763,53.2156,158.17700000000005,52.4372,307.678,-3.7873e-05,-8.91e-06,0.0,0 STARLINK-3634,1 51798U 22017AG  22289.13475018 -.00000891  00000-0 -37873-4 0  9996,2 51798  53.2156 158.1770 0001763  52.4372 307.6780 15.08834923 36680,6917.896,95.438,540.981,538.5409999999998,0.0
51798.0,STARLINK-3634,PAYLOAD,2022-10-16 17:32:30,15.08826352,0.0001804,53.215,155.4999,52.8284,307.2873,7.488300000000001e-05,9.03e-06,0.0,0 STARLINK-3634,1 51798U 22017AG  22289.73091164  .00000903  00000-0  74883-4 0  9992,2 51798  53.2150 155.4999 0001804  52.8284 307.2873 15.08826352 36775,6917.922,95.438,541.035,538.539,0.0
51798.0,STARLINK-3634,PAYLOAD,2022-10-16 19:07:53,15.08829191,0.0001676999999999,53.2154,155.2028,49.4349,310.6789,8.903700000000001e-05,1.129e-05,0.0,0 STARLINK-3634,1 51798U 22017AG  22289.79714891  .00001129  00000-0  89037-4 0  9995,2 51798  53.2154 155.2028 0001677  49.4349 310.6789 15.08829191 36781,6917.913000000001,95.438,540.939,538.618,0.0
51798.0,STARLINK-3634,PAYLOAD,2022-10-16 23:54:02,15.08835178,0.0001695,53.2157,154.3101,54.0274,306.0875,0.00013672,1.888e-05,0.0,0 STARLINK-3634,1 51798U 22017AG  22289.99586619  .00001888  00000-0  13672-3 0  9995,2 51798  53.2157 154.3101 0001695  54.0274 306.0875 15.08835178 36816,6917.895,95.438,540.933,538.5880000000002,0.0
51798.0,STARLINK-3634,PAYLOAD,2022-10-17 07:50:58,15.08842059,0.0001694,53.2157,152.8232,54.733,305.382,0.00018323,2.629e-05,0.0,0 STARLINK-3634,1 51798U 22017AG  22290.32706161  .00002629  00000-0  18323-3 0  9992,2 51798  53.2157 152.8232 0001694  54.7330 305.3820 15.08842059 36866,6917.874,95.437,540.911,538.567,0.0
51798.0,STARLINK-3634,PAYLOAD,2022-10-17 18:58:40,15.08838297,0.0001733,53.2169,150.7433,66.5382,293.5792,8.6211e-05,1.084e-05,0.0,0 STARLINK-3634,1 51798U 22017AG  22290.79074854  .00001084  00000-0  86211-4 0  9996,2 51798  53.2169 150.7433 0001733  66.5382 293.5792 15.08838297 36934,6917.886,95.438,540.9490000000002,538.552,0.0
51798.0,STARLINK-3634,PAYLOAD,2022-10-17 23:44:50,15.08839623,0.0001718,53.2166,149.8509,63.9949,296.122,9.5099e-05,1.226e-05,0.0,0 STARLINK-3634,1 51798U 22017AG  22290.98946820  .00001226  00000-0  95099-4 0  9990,2 51798  53.2166 149.8509 0001718  63.9949 296.1220 15.08839623 36969,6917.882,95.438,540.935,538.558,0.0
51798.0,STARLINK-3634,PAYLOAD,2022-10-18 07:41:45,15.08841968,0.0001838,53.2163,148.3636,54.7528,305.3636,0.00012166,1.649e-05,0.0,0 STARLINK-3634,1 51798U 22017AG  22291.32066635  .00001649  00000-0  12166-3 0  9998,2 51798  53.2163 148.3636 0001838  54.7528 305.3636 15.08841968 37011,6917.874,95.437,541.011,538.4680000000002,0.0
51798.0,STARLINK-3634,PAYLOAD,2022-10-18 23:35:37,15.08837918,0.000177,53.2162,145.3902,56.3732,303.7429,1.18e-05,-1e-06,0.0,0 STARLINK-3634,1 51798U 22017AG  22291.98307274 -.00000100  00000-0  11800-4 0  9994,2 51798  53.2162 145.3902 0001770  56.3732 303.7429 15.08837918 37116,6917.887,95.438,540.976,538.5269999999998,0.0
51798.0,STARLINK-3634,PAYLOAD,2022-10-19 07:32:32,15.08846804,0.0001779,53.2161,143.9025,56.5074,303.6088,5.7514e-05,6.28e-06,0.0,0 STARLINK-3634,1 51798U 22017AG  22292.31426505  .00000628  00000-0  57514-4 0  9997,2 51798  53.2161 143.9025 0001779  56.5074 303.6088 15.08846804 37164,6917.86,95.437,540.955,538.494,0.0
51798.0,STARLINK-3634,PAYLOAD,2022-10-19 21:51:00,15.08845256,0.0001688,53.2158,141.2258,54.0162,306.0987,5.6425e-05,6.1e-06,0.0,0 STARLINK-3634,1 51798U 22017AG  22292.91042299  .00000610  00000-0  56425-4 0  9998,2 51798  53.2158 141.2258 0001688  54.0162 306.0987 15.08845256 37254,6917.864000000001,95.437,540.8969999999998,538.562,0.0
51798.0,STARLINK-3634,PAYLOAD,2022-10-20 01:01:47,15.08840551,0.0001723,53.216,140.6316,55.1602,304.9552,1.7669e-05,-7e-08,0.0,0 STARLINK-3634,1 51798U 22017AG  22293.04290693 -.00000007  00000-0  17669-4 0  9994,2 51798  53.2160 140.6316 0001723  55.1602 304.9552 15.08840551 37276,6917.879,95.438,540.936,538.552,0.0
51798.0,STARLINK-3634,PAYLOAD,2022-10-20 20:06:24,15.0884037,0.0002043,53.2178,137.0654,54.3483,305.7699,5.0867e-05,5.21e-06,0.0,0 STARLINK-3634,1 51798U 22017AG  22293.83778646  .00000521  00000-0  50867-4 0  9997,2 51798  53.2178 137.0654 0002043  54.3483 305.7699 15.08840370 37397,6917.879,95.438,541.158,538.331,0.0
51798.0,STARLINK-3634,PAYLOAD,2022-10-21 07:14:05,15.08850093,0.0001841999999999,53.2155,134.981,57.1361,302.9808,9.0437e-05,1.152e-05,0.0,0 STARLINK-3634,1 51798U 22017AG  22294.30145638  .00001152  00000-0  90437-4 0  9997,2 51798  53.2155 134.9810 0001842  57.1361 302.9808 15.08850093 37466,6917.85,95.437,540.989,538.44,0.0
51798.0,STARLINK-3634,PAYLOAD,2022-10-21 16:46:24,15.08846971,0.0002109999999999,53.2121,133.1945,70.8591,289.2629,-8.9031e-06,-4.3e-06,0.0,0 STARLINK-3634,1 51798U 22017AG  22294.69890022 -.00000430  00000-0 -89031-5 0  9992,2 51798  53.2121 133.1945 0002110  70.8591 289.2629 15.08846971 37520,6917.859,95.437,541.184,538.264,0.0
51798.0,STARLINK-3634,PAYLOAD,2022-10-22 00:43:21,15.08838604,0.0001992,53.2138,131.7091,67.4039,292.7164,-5.1409e-05,-1.106e-05,0.0,0 STARLINK-3634,1 51798U 22017AG  22295.03010641 -.00001106  00000-0 -51409-4 0  9990,2 51798  53.2138 131.7091 0001992  67.4039 292.7164 15.08838604 37572,6917.885,95.438,541.128,538.372,0.0
51798.0,STARLINK-3634,PAYLOAD,2022-10-22 16:37:11,15.08868217,0.0001776999999999,53.2151,128.7355,67.9164,292.2017,-0.00021712,-3.745e-05,0.0,0 STARLINK-3634,1 51798U 22017AG  22295.69249642 -.00003745  00000-0 -21712-3 0  9991,2 51798  53.2151 128.7355 0001777  67.9164 292.2017 15.08868217 37677,6917.794,95.436,540.888,538.43,0.0
51798.0,STARLINK-3634,PAYLOAD,2022-10-22 19:47:57,15.08846965,0.000198,53.2155,128.1416,61.9393,298.1799,7.247e-05,8.66e-06,0.0,0 STARLINK-3634,1 51798U 22017AG  22295.82497683  .00000866  00000-0  72470-4 0  9993,2 51798  53.2155 128.1416 0001980  61.9393 298.1799 15.08846965 37697,6917.859,95.437,541.094,538.354,0.0
51798.0,STARLINK-3634,PAYLOAD,2022-10-23 16:27:59,15.08843869,0.0002195999999999,53.2154,124.276,60.6919,299.4293,-1.826e-05,-5.79e-06,0.0,0 STARLINK-3634,1 51798U 22017AG  22296.68610030 -.00000579  00000-0 -18260-4 0  9991,2 51798  53.2154 124.2760 0002196  60.6919 299.4293 15.08843869 37823,6917.869000000002,95.437,541.253,538.214,0.0
51798.0,STARLINK-3634,PAYLOAD,2022-10-23 18:03:22,15.08837628,0.0001864,53.2161,123.9787,62.0374,298.0807,7.2581e-05,8.67e-06,0.0,0 STARLINK-3634,1 51798U 22017AG  22296.75234119  .00000867  00000-0  72581-4 0  9993,2 51798  53.2161 123.9787 0001864  62.0374 298.0807 15.08837628 37831,6917.888000000001,95.438,541.0419999999998,538.4630000000002,0.0
51798.0,STARLINK-3634,PAYLOAD,2022-10-24 11:32:36,15.08842397,0.0001948,53.2161,120.7087,58.5767,301.5415,3.9032e-05,3.33e-06,0.0,0 STARLINK-3634,1 51798U 22017AG  22297.48097871  .00000333  00000-0  39032-4 0  9998,2 51798  53.2161 120.7087 0001948  58.5767 301.5415 15.08842397 37944,6917.873000000001,95.437,541.086,538.39,0.0
51798.0,STARLINK-3634,PAYLOAD,2022-10-24 16:18:46,15.0883543,0.0001799,53.2166,119.8148,68.7259,291.3925,-5.4665e-05,-1.158e-05,0.0,0 STARLINK-3634,1 51798U 22017AG  22297.67970599 -.00001158  00000-0 -54665-4 0  9993,2 51798  53.2166 119.8148 0001799  68.7259 291.3925 15.08835430 37974,6917.894,95.438,541.004,538.515,0.0
51798.0,STARLINK-3634,PAYLOAD,2022-10-25 00:15:43,15.0881841,0.0001896,53.2166,118.332,50.812,309.3040000000001,-7.6762e-05,-1.509e-05,0.0,0 STARLINK-3634,1 51798U 22017AG  22298.01092079 -.00001509  00000-0 -76762-4 0  9992,2 51798  53.2166 118.3320 0001896  50.8120 309.3040 15.08818410 38021,6917.946,95.439,541.123,538.5,0.0
51798.0,STARLINK-3634,PAYLOAD,2022-10-25 05:01:53,15.08822004,0.0001747,53.2163,117.4378,61.6252,298.4916,-0.0001761,-3.088e-05,0.0,0 STARLINK-3634,1 51798U 22017AG  22298.20964191 -.00003088  00000-0 -17610-3 0  9996,2 51798  53.2163 117.4378 0001747  61.6252 298.4916 15.08822004 38059,6917.935,95.439,541.009,538.592,0.0
51798.0,STARLINK-3634,PAYLOAD,2022-10-25 19:20:21,15.08821044,0.000175,53.2172,114.76,61.4507,298.6661,-8.266899999999999e-05,-1.603e-05,0.0,0 STARLINK-3634,1 51798U 22017AG  22298.80580773 -.00001603  00000-0 -82669-4 0  9990,2 51798  53.2172 114.7600 0001750  61.4507 298.6661 15.08821044 38144,6917.938,95.439,541.014,538.5930000000002,0.0
51798.0,STARLINK-3634,PAYLOAD,2022-10-26 04:52:40,15.08830908,0.0001535,53.2179,112.9751,77.1953,282.921,-1.9728e-05,-6.02e-06,0.0,0 STARLINK-3634,1 51798U 22017AG  22299.20324291 -.00000602  00000-0 -19728-4 0  9990,2 51798  53.2179 112.9751 0001535  77.1953 282.9210 15.08830908 38200,6917.908,95.438,540.835,538.711,0.0
51798.0,STARLINK-3634,PAYLOAD,2022-10-26 17:35:44,15.08835413,0.0001885,53.2164,110.5969,38.0063,322.1062,0.00017624,2.518e-05,0.0,0 STARLINK-3634,1 51798U 22017AG  22299.73315799  .00002518  00000-0  17624-3 0  9999,2 51798  53.2164 110.5969 0001885  38.0063 322.1062 15.08835413 38281,6917.894,95.438,541.063,538.455,0.0
51798.0,STARLINK-3634,PAYLOAD,2022-10-26 20:46:30,15.08839284,0.0001654,53.217,110.0011,50.68,309.4338,0.00017872,2.557e-05,0.0,0 STARLINK-3634,1 51798U 22017AG  22299.86563569  .00002557  00000-0  17872-3 0  9991,2 51798  53.2170 110.0011 0001654  50.6800 309.4338 15.08839284 38301,6917.8830000000025,95.438,540.8919999999998,538.6030000000002,0.0
51798.0,STARLINK-3634,PAYLOAD,2022-10-27 04:43:26,15.08838819,0.0001606,53.2173,108.5141,51.7562,308.3575,0.00029171,4.357e-05,0.0,0 STARLINK-3634,1 51798U 22017AG  22300.19683500  .00004357  00000-0  29171-3 0  9993,2 51798  53.2173 108.5141 0001606  51.7562 308.3575 15.08838819 38353,6917.884,95.438,540.86,538.638,0.0
